{
  "type": "FeatureCollection",
  "features": [
    {
      "type": "Feature",
      "properties": {
        "norad_id": 40730,
        "name": "GPS BIIF-10 (PRN 08)",
        "group": "gps-ops",
        "lat": 51.69444703815616,
        "lon": 28.317240676531444,
        "alt_km": 20109.362426659838,
        "timestamp": "2025-12-19T08:58:49.597344+00:00",
        "meta_object_name": "GPS BIIF-10 (PRN 08)",
        "meta_object_id": "2015-033A",
        "meta_epoch": "2025-12-18T05:38:11.905728",
        "meta_mean_motion": 2.0056541,
        "meta_eccentricity": 0.0111299,
        "meta_inclination": 54.1258,
        "meta_ra_of_asc_node": 274.5468,
        "meta_arg_of_pericenter": 26.9435,
        "meta_mean_anomaly": 333.656,
        "meta_ephemeris_type": 0,
        "meta_classification_type": "U",
        "meta_norad_cat_id": 40730,
        "meta_element_set_no": 999,
        "meta_rev_at_epoch": 7636,
        "meta_bstar": 0,
        "meta_mean_motion_dot": -3.6e-07,
        "meta_mean_motion_ddot": 0,
        "tle_line1": "1 40730U 15033A   25352.23486002 -.00000036  00000+0  00000+0 0  9996",
        "tle_line2": "2 40730  54.1258 274.5468 0111299  26.9435 333.6560  2.00565410 76360"
      },
      "geometry": {
        "type": "Point",
        "coordinates": [
          28.317240676531444,
          51.69444703815616
        ]
      }
    },
    {
      "type": "Feature",
      "properties": {
        "norad_id": 41019,
        "name": "GPS BIIF-11 (PRN 10)",
        "group": "gps-ops",
        "lat": 45.61016231273421,
        "lon": 79.63892545533392,
        "alt_km": 20468.57550491212,
        "timestamp": "2025-12-19T08:58:49.597355+00:00",
        "meta_object_name": "GPS BIIF-11 (PRN 10)",
        "meta_object_id": "2015-062A",
        "meta_epoch": "2025-12-18T07:03:43.989696",
        "meta_mean_motion": 2.00567221,
        "meta_eccentricity": 0.0110964,
        "meta_inclination": 56.8362,
        "meta_ra_of_asc_node": 37.7874,
        "meta_arg_of_pericenter": 230.0867,
        "meta_mean_anomaly": 128.9943,
        "meta_ephemeris_type": 0,
        "meta_classification_type": "U",
        "meta_norad_cat_id": 41019,
        "meta_element_set_no": 999,
        "meta_rev_at_epoch": 7420,
        "meta_bstar": 0,
        "meta_mean_motion_dot": -6.9e-07,
        "meta_mean_motion_ddot": 0,
        "tle_line1": "1 41019U 15062A   25352.29425914 -.00000069  00000+0  00000+0 0  9996",
        "tle_line2": "2 41019  56.8362  37.7874 0110964 230.0867 128.9943  2.00567221 74204"
      },
      "geometry": {
        "type": "Point",
        "coordinates": [
          79.63892545533392,
          45.61016231273421
        ]
      }
    },
    {
      "type": "Feature",
      "properties": {
        "norad_id": 41328,
        "name": "GPS BIIF-12 (PRN 32)",
        "group": "gps-ops",
        "lat": 0.06944317676972973,
        "lon": 96.63928731917166,
        "alt_km": 20290.32342133754,
        "timestamp": "2025-12-19T08:58:49.597366+00:00",
        "meta_object_name": "GPS BIIF-12 (PRN 32)",
        "meta_object_id": "2016-007A",
        "meta_epoch": "2025-12-18T09:02:43.184544",
        "meta_mean_motion": 2.00560483,
        "meta_eccentricity": 0.00924431,
        "meta_inclination": 55.4093,
        "meta_ra_of_asc_node": 96.6333,
        "meta_arg_of_pericenter": 243.7073,
        "meta_mean_anomaly": 115.3258,
        "meta_ephemeris_type": 0,
        "meta_classification_type": "U",
        "meta_norad_cat_id": 41328,
        "meta_element_set_no": 999,
        "meta_rev_at_epoch": 7221,
        "meta_bstar": 0,
        "meta_mean_motion_dot": -3.5e-07,
        "meta_mean_motion_ddot": 0,
        "tle_line1": "1 41328U 16007A   25352.37688871 -.00000035  00000+0  00000+0 0  9994",
        "tle_line2": "2 41328  55.4093  96.6333 0092443 243.7073 115.3258  2.00560483 72219"
      },
      "geometry": {
        "type": "Point",
        "coordinates": [
          96.63928731917166,
          0.06944317676972973
        ]
      }
    },
    {
      "type": "Feature",
      "properties": {
        "norad_id": 43873,
        "name": "GPS BIII-1  (PRN 04)",
        "group": "gps-ops",
        "lat": -52.47317219155155,
        "lon": -17.61346413586,
        "alt_km": 20136.827483051165,
        "timestamp": "2025-12-19T08:58:49.597377+00:00",
        "meta_object_name": "GPS BIII-1  (PRN 04)",
        "meta_object_id": "2018-109A",
        "meta_epoch": "2025-12-18T12:57:04.857120",
        "meta_mean_motion": 2.00553911,
        "meta_eccentricity": 0.0037524,
        "meta_inclination": 55.5701,
        "meta_ra_of_asc_node": 99.3182,
        "meta_arg_of_pericenter": 195.2606,
        "meta_mean_anomaly": 175.7707,
        "meta_ephemeris_type": 0,
        "meta_classification_type": "U",
        "meta_norad_cat_id": 43873,
        "meta_element_set_no": 999,
        "meta_rev_at_epoch": 5145,
        "meta_bstar": 0,
        "meta_mean_motion_dot": -3e-07,
        "meta_mean_motion_ddot": 0,
        "tle_line1": "1 43873U 18109A   25352.53963955 -.00000030  00000+0  00000+0 0  9998",
        "tle_line2": "2 43873  55.5701  99.3182 0037524 195.2606 175.7707  2.00553911 51457"
      },
      "geometry": {
        "type": "Point",
        "coordinates": [
          -17.61346413586,
          -52.47317219155155
        ]
      }
    },
    {
      "type": "Feature",
      "properties": {
        "norad_id": 44506,
        "name": "GPS BIII-2  (PRN 18)",
        "group": "gps-ops",
        "lat": 24.090588178700862,
        "lon": 140.52167417494732,
        "alt_km": 20076.633326805513,
        "timestamp": "2025-12-19T08:58:49.597393+00:00",
        "meta_object_name": "GPS BIII-2  (PRN 18)",
        "meta_object_id": "2019-056A",
        "meta_epoch": "2025-12-18T07:32:42.973728",
        "meta_mean_motion": 2.00566635,
        "meta_eccentricity": 0.00577192,
        "meta_inclination": 55.7194,
        "meta_ra_of_asc_node": 338.3313,
        "meta_arg_of_pericenter": 198.5145,
        "meta_mean_anomaly": 267.0868,
        "meta_ephemeris_type": 0,
        "meta_classification_type": "U",
        "meta_norad_cat_id": 44506,
        "meta_element_set_no": 999,
        "meta_rev_at_epoch": 4644,
        "meta_bstar": 0,
        "meta_mean_motion_dot": -8.5e-07,
        "meta_mean_motion_ddot": 0,
        "tle_line1": "1 44506U 19056A   25352.31438627 -.00000085  00000+0  00000+0 0  9993",
        "tle_line2": "2 44506  55.7194 338.3313 0057719 198.5145 267.0868  2.00566635 46446"
      },
      "geometry": {
        "type": "Point",
        "coordinates": [
          140.52167417494732,
          24.090588178700862
        ]
      }
    },
    {
      "type": "Feature",
      "properties": {
        "norad_id": 45854,
        "name": "GPS BIII-3  (PRN 23)",
        "group": "gps-ops",
        "lat": 56.330707659708445,
        "lon": 133.36038889664886,
        "alt_km": 20229.23171841772,
        "timestamp": "2025-12-19T08:58:49.597405+00:00",
        "meta_object_name": "GPS BIII-3  (PRN 23)",
        "meta_object_id": "2020-041A",
        "meta_epoch": "2025-12-18T05:27:58.178880",
        "meta_mean_motion": 2.00562003,
        "meta_eccentricity": 0.0060605,
        "meta_inclination": 56.5506,
        "meta_ra_of_asc_node": 35.9719,
        "meta_arg_of_pericenter": 203.6022,
        "meta_mean_anomaly": 143.4254,
        "meta_ephemeris_type": 0,
        "meta_classification_type": "U",
        "meta_norad_cat_id": 45854,
        "meta_element_set_no": 999,
        "meta_rev_at_epoch": 4040,
        "meta_bstar": 0,
        "meta_mean_motion_dot": -7e-07,
        "meta_mean_motion_ddot": 0,
        "tle_line1": "1 45854U 20041A   25352.22775670 -.00000070  00000+0  00000+0 0  9992",
        "tle_line2": "2 45854  56.5506  35.9719 0060605 203.6022 143.4254  2.00562003 40400"
      },
      "geometry": {
        "type": "Point",
        "coordinates": [
          133.36038889664886,
          56.330707659708445
        ]
      }
    },
    {
      "type": "Feature",
      "properties": {
        "norad_id": 46826,
        "name": "GPS BIII-4  (PRN 14)",
        "group": "gps-ops",
        "lat": 47.34920440966631,
        "lon": -89.86604234041015,
        "alt_km": 20304.090712369016,
        "timestamp": "2025-12-19T08:58:49.597417+00:00",
        "meta_object_name": "GPS BIII-4  (PRN 14)",
        "meta_object_id": "2020-078A",
        "meta_epoch": "2025-12-16T01:06:13.902336",
        "meta_mean_motion": 2.00566891,
        "meta_eccentricity": 0.00647554,
        "meta_inclination": 54.0145,
        "meta_ra_of_asc_node": 218.2068,
        "meta_arg_of_pericenter": 203.3828,
        "meta_mean_anomaly": 339.3936,
        "meta_ephemeris_type": 0,
        "meta_classification_type": "U",
        "meta_norad_cat_id": 46826,
        "meta_element_set_no": 999,
        "meta_rev_at_epoch": 3783,
        "meta_bstar": 0,
        "meta_mean_motion_dot": 6.7e-07,
        "meta_mean_motion_ddot": 0,
        "tle_line1": "1 46826U 20078A   25350.04599424  .00000067  00000+0  00000+0 0  9996",
        "tle_line2": "2 46826  54.0145 218.2068 0064755 203.3828 339.3936  2.00566891 37831"
      },
      "geometry": {
        "type": "Point",
        "coordinates": [
          -89.86604234041015,
          47.34920440966631
        ]
      }
    }
  ]
}